ORBCOMM FM115 [+]       
1 41186U 15081H   23331.61806375  .00001505  00000+0  34502-3 0  9990
2 41186  46.9984 213.6277 0000978 315.1097  44.9710 14.60133342424765
ORBCOMM FM108 [+]       
1 41187U 15081J   23331.81993926  .00002272  00000+0  54809-3 0  9996
2 41187  47.0045 261.8127 0002656 242.9243 117.1371 14.56077186424056
ORBCOMM FM117 [+]       
1 41188U 15081K   23331.92296734  .00002257  00000+0  54458-3 0  9995
2 41188  47.0007 260.2775 0003380 253.0060 107.0454 14.56077993424160
ORBCOMM FM116 [+]       
1 41189U 15081L   23331.08908016  .00001877  00000+0  45929-3 0  9996
2 41189  47.0027 354.0108 0002908 312.1063  47.9574 14.56086588422804
